{
    "type": "FeatureCollection",
    "features": [
        {
            "type": "Feature",
            "geometry": {
                "type": "Point",
                "coordinates": [
                    -0.174,
                    5.625
                ]
            },
            "properties": {
                "id": "1",
                "name": "Accra",
                "phase": {
                    "id": "1",
                    "name": "NextGen Phase 1",
                    "description": "The first phase of the Ghana Fibre Network NextGen roll-out.",
                    "funders": [
                        {
                            "id": "1",
                            "name": "Ghana Infrastructure Investment Fund",
                            "country": "GH",
                            "roles": [
                                "funder"
                            ],
                            "roleDetails": "The Ghana Infrastructure Investment Fund provided equity financing for the construction of phase 1 of the NextGen network.",
                            "website": "https://www.example.com",
                            "logo": "https://www.example.com/logo.png"
                        }
                    ]
                },
                "status": "operational",
                "address": {
                    "streetAddress": "Boundary Rd",
                    "locality": "Shiashie",
                    "region": "Accra",
                    "postalCode": "12345",
                    "country": "GH"
                },
                "type": [
                    "pop"
                ],
                "supportingInfrastructure": {
                    "type": "building",
                    "owner": {
                        "id": "GH-RGD-CS111111111",
                        "name": "FibreCo"
                    },
                    "spareCapacity": true
                },
                "accessPoint": true,
                "internationalConnections": [
                    {
                        "region": "Lom\u00e9",
                        "country": "TG"
                    }
                ],
                "power": true,
                "technologies": [
                    "ip"
                ],
                "transmissionMediumOwner": {
                    "id": "GH-RGD-CS111111111",
                    "name": "FibreCo"
                },
                "networkProviders": [
                    {
                        "id": "GH-RGD-CS222222222",
                        "name": "FastWeb",
                        "identifier": {
                            "id": "CS222222222",
                            "scheme": "GH-RGD",
                            "legalName": "FastWeb Ghana Limited",
                            "uri": "https://example.com/companies/CS222222222"
                        },
                        "country": "GH",
                        "roles": [
                            "networkProvider"
                        ],
                        "roleDetails": "FastWeb provides wholesale services to service providers and dark fibre access to other network providers.",
                        "website": "https://www.example.com",
                        "logo": "https://www.example.com/logo.png"
                    }
                ],
                "network": {
                    "id": "a096d627-72e1-4f9b-b129-951b1737bff4",
                    "name": "Ghana Fibre Network",
                    "contracts": [
                        {
                            "id": "1",
                            "title": "NextGen Phase 1 Construction Contract",
                            "description": "Contract for the construction of phase 1 of the NextGen network.",
                            "type": "private",
                            "value": {
                                "amount": 1537459500.0,
                                "currency": "GHS"
                            },
                            "dateSigned": "2016-06-30",
                            "documents": [
                                {
                                    "title": "NextGen Phase 1 Construction Contract",
                                    "description": "Signed contract.",
                                    "url": "http://example.com/contracts/nextgen-phase1-construction.pdf",
                                    "format": "application/pdf"
                                }
                            ],
                            "relatedPhases": [
                                {
                                    "id": "1",
                                    "name": "NextGen Phase 1",
                                    "description": "The first phase of the Ghana Fibre Network NextGen roll-out.",
                                    "funders": [
                                        {
                                            "id": "1",
                                            "name": "Ghana Infrastructure Investment Fund",
                                            "country": "GH",
                                            "roles": [
                                                "funder"
                                            ],
                                            "roleDetails": "The Ghana Infrastructure Investment Fund provided equity financing for the construction of phase 1 of the NextGen network.",
                                            "website": "https://www.example.com",
                                            "logo": "https://www.example.com/logo.png"
                                        }
                                    ]
                                }
                            ]
                        }
                    ],
                    "wayleaves": [
                        {
                            "id": "1",
                            "grantor": {
                                "id": "1",
                                "name": "Accra Municipal Council"
                            },
                            "yearSigned": 2022,
                            "term": {
                                "indefinite": false,
                                "years": 25
                            },
                            "cost": {
                                "recurring": true,
                                "perMetre": {
                                    "amount": 1.75,
                                    "currency": "GHS"
                                }
                            }
                        }
                    ],
                    "website": "http://example.com/network",
                    "publisher": {
                        "name": "FibreCo",
                        "identifier": {
                            "id": "CS111111111",
                            "scheme": "GH-RGD",
                            "legalName": "FibreCo Ghana Limited",
                            "uri": "https://example.com/companies/CS111111111"
                        }
                    },
                    "publicationDate": "2022-01-01",
                    "collectionDate": "2021-09-30",
                    "crs": {
                        "name": "urn:ogc:def:crs:OGC::CRS84",
                        "uri": "http://www.opengis.net/def/crs/OGC/1.3/CRS84"
                    },
                    "accuracy": 250,
                    "accuracyDetails": "Measured according to the US National Standard for Spatial Data Accuracy.",
                    "language": "en",
                    "links": [
                        {
                            "rel": "describedby",
                            "href": "https://standard.ofds.info/en/0__4__0/network-schema.json"
                        }
                    ]
                },
                "featureType": "node"
            }
        },
        {
            "type": "Feature",
            "geometry": {
                "type": "Point",
                "coordinates": [
                    -1.628,
                    6.711
                ]
            },
            "properties": {
                "id": "2",
                "name": "Kumasi",
                "phase": {
                    "id": "1",
                    "name": "NextGen Phase 1",
                    "description": "The first phase of the Ghana Fibre Network NextGen roll-out.",
                    "funders": [
                        {
                            "id": "1",
                            "name": "Ghana Infrastructure Investment Fund",
                            "country": "GH",
                            "roles": [
                                "funder"
                            ],
                            "roleDetails": "The Ghana Infrastructure Investment Fund provided equity financing for the construction of phase 1 of the NextGen network.",
                            "website": "https://www.example.com",
                            "logo": "https://www.example.com/logo.png"
                        }
                    ]
                },
                "status": "operational",
                "address": {
                    "streetAddress": "Kejetia Road",
                    "locality": "Bantama",
                    "region": "Kumasi",
                    "postalCode": "00000",
                    "country": "GH"
                },
                "type": [
                    "pop"
                ],
                "supportingInfrastructure": {
                    "type": "building",
                    "owner": {
                        "id": "GH-RGD-CS111111111",
                        "name": "FibreCo"
                    },
                    "spareCapacity": true
                },
                "accessPoint": false,
                "power": true,
                "technologies": [
                    "ip"
                ],
                "transmissionMediumOwner": {
                    "id": "GH-RGD-CS111111111",
                    "name": "FibreCo"
                },
                "networkProviders": [
                    {
                        "id": "GH-RGD-CS222222222",
                        "name": "FastWeb",
                        "identifier": {
                            "id": "CS222222222",
                            "scheme": "GH-RGD",
                            "legalName": "FastWeb Ghana Limited",
                            "uri": "https://example.com/companies/CS222222222"
                        },
                        "country": "GH",
                        "roles": [
                            "networkProvider"
                        ],
                        "roleDetails": "FastWeb provides wholesale services to service providers and dark fibre access to other network providers.",
                        "website": "https://www.example.com",
                        "logo": "https://www.example.com/logo.png"
                    }
                ],
                "network": {
                    "id": "a096d627-72e1-4f9b-b129-951b1737bff4",
                    "name": "Ghana Fibre Network",
                    "contracts": [
                        {
                            "id": "1",
                            "title": "NextGen Phase 1 Construction Contract",
                            "description": "Contract for the construction of phase 1 of the NextGen network.",
                            "type": "private",
                            "value": {
                                "amount": 1537459500.0,
                                "currency": "GHS"
                            },
                            "dateSigned": "2016-06-30",
                            "documents": [
                                {
                                    "title": "NextGen Phase 1 Construction Contract",
                                    "description": "Signed contract.",
                                    "url": "http://example.com/contracts/nextgen-phase1-construction.pdf",
                                    "format": "application/pdf"
                                }
                            ],
                            "relatedPhases": [
                                {
                                    "id": "1",
                                    "name": "NextGen Phase 1",
                                    "description": "The first phase of the Ghana Fibre Network NextGen roll-out.",
                                    "funders": [
                                        {
                                            "id": "1",
                                            "name": "Ghana Infrastructure Investment Fund",
                                            "country": "GH",
                                            "roles": [
                                                "funder"
                                            ],
                                            "roleDetails": "The Ghana Infrastructure Investment Fund provided equity financing for the construction of phase 1 of the NextGen network.",
                                            "website": "https://www.example.com",
                                            "logo": "https://www.example.com/logo.png"
                                        }
                                    ]
                                }
                            ]
                        }
                    ],
                    "wayleaves": [
                        {
                            "id": "1",
                            "grantor": {
                                "id": "1",
                                "name": "Accra Municipal Council"
                            },
                            "yearSigned": 2022,
                            "term": {
                                "indefinite": false,
                                "years": 25
                            },
                            "cost": {
                                "recurring": true,
                                "perMetre": {
                                    "amount": 1.75,
                                    "currency": "GHS"
                                }
                            }
                        }
                    ],
                    "website": "http://example.com/network",
                    "publisher": {
                        "name": "FibreCo",
                        "identifier": {
                            "id": "CS111111111",
                            "scheme": "GH-RGD",
                            "legalName": "FibreCo Ghana Limited",
                            "uri": "https://example.com/companies/CS111111111"
                        }
                    },
                    "publicationDate": "2022-01-01",
                    "collectionDate": "2021-09-30",
                    "crs": {
                        "name": "urn:ogc:def:crs:OGC::CRS84",
                        "uri": "http://www.opengis.net/def/crs/OGC/1.3/CRS84"
                    },
                    "accuracy": 250,
                    "accuracyDetails": "Measured according to the US National Standard for Spatial Data Accuracy.",
                    "language": "en",
                    "links": [
                        {
                            "rel": "describedby",
                            "href": "https://standard.ofds.info/en/0__4__0/network-schema.json"
                        }
                    ]
                },
                "featureType": "node"
            }
        }
    ]
}